$$SOE
2460154.500000000, A.D. 2023-Jul-29 00:00:00.0000, -5.229089458007291E+07, 2.651736734869748E+08, -1.209872549232717E+07,
2460161.500000000, A.D. 2023-Aug-05 00:00:00.0000, -6.525257518274743E+07, 2.643552456057326E+08, -1.659299376068859E+07,
2460168.500000000, A.D. 2023-Aug-12 00:00:00.0000, -7.805835981961109E+07, 2.629047403378485E+08, -2.104763119531316E+07,
2460175.500000000, A.D. 2023-Aug-19 00:00:00.0000, -9.068219118995191E+07, 2.608409788391405E+08, -2.545321455967757E+07,
2460182.500000000, A.D. 2023-Aug-26 00:00:00.0000, -1.030997737648712E+08, 2.581835827573466E+08, -2.980091121117313E+07,
2460189.500000000, A.D. 2023-Sep-02 00:00:00.0000, -1.152885270729772E+08, 2.549528159802346E+08, -3.408246651645230E+07,
2460196.500000000, A.D. 2023-Sep-09 00:00:00.0000, -1.272275303537277E+08, 2.511694413045062E+08, -3.829018796309546E+07,
2460203.500000000, A.D. 2023-Sep-16 00:00:00.0000, -1.388974604784188E+08, 2.468545915561881E+08, -4.241692671115211E+07,
2460210.500000000, A.D. 2023-Sep-23 00:00:00.0000, -1.502805245416238E+08, 2.420296548448039E+08, -4.645605724043005E+07,
2460217.500000000, A.D. 2023-Sep-30 00:00:00.0000, -1.613603890426832E+08, 2.367161744002565E+08, -5.040145552646440E+07,
2460224.500000000, A.D. 2023-Oct-07 00:00:00.0000, -1.721221093625733E+08, 2.309357616222075E+08, -5.424747606147304E+07,
2460231.500000000, A.D. 2023-Oct-14 00:00:00.0000, -1.825520596206041E+08, 2.247100181416592E+08, -5.798892849839059E+07,
2460238.500000000, A.D. 2023-Oct-21 00:00:00.0000, -1.926378606177205E+08, 2.180604675669626E+08, -6.162105442039602E+07,
2460245.500000000, A.D. 2023-Oct-28 00:00:00.0000, -2.023683080737913E+08, 2.110084982605160E+08, -6.513950420848644E+07,
2460252.500000000, A.D. 2023-Nov-04 00:00:00.0000, -2.117333030270208E+08, 2.035753154920267E+08, -6.854031419370516E+07,
2460259.500000000, A.D. 2023-Nov-11 00:00:00.0000, -2.207237846955087E+08, 1.957819015077861E+08, -7.181988434545599E+07,
2460266.500000000, A.D. 2023-Nov-18 00:00:00.0000, -2.293316659469687E+08, 1.876489826322829E+08, -7.497495666677770E+07,
2460273.500000000, A.D. 2023-Nov-25 00:00:00.0000, -2.375497715705851E+08, 1.791970026578194E+08, -7.800259441288404E+07,
2460280.500000000, A.D. 2023-Dec-02 00:00:00.0000, -2.453717795027656E+08, 1.704461017988200E+08, -8.090016221644320E+07,
2460287.500000000, A.D. 2023-Dec-09 00:00:00.0000, -2.527921650355196E+08, 1.614161004927407E+08, -8.366530718173179E+07,
2460294.500000000, A.D. 2023-Dec-16 00:00:00.0000, -2.598061477695460E+08, 1.521264874501270E+08, -8.629594099741949E+07,
2460301.500000000, A.D. 2023-Dec-23 00:00:00.0000, -2.664096409741004E+08, 1.425964120792316E+08, -8.879022305131564E+07,
2460308.500000000, A.D. 2023-Dec-30 00:00:00.0000, -2.725992046787118E+08, 1.328446818246859E+08, -9.114654434033029E+07,
2460315.500000000, A.D. 2024-Jan-06 00:00:00.0000, -2.783720042318363E+08, 1.228897616095387E+08, -9.336351220832965E+07,
2460322.500000000, A.D. 2024-Jan-13 00:00:00.0000, -2.837257710838435E+08, 1.127497731813346E+08, -9.543993634436360E+07,
2460329.500000000, A.D. 2024-Jan-20 00:00:00.0000, -2.886587644710484E+08, 1.024424970911287E+08, -9.737481587727606E+07,
2460336.500000000, A.D. 2024-Jan-27 00:00:00.0000, -2.931697359244476E+08, 9.198537763391475E+07, -9.916732729834113E+07,
2460343.500000000, A.D. 2024-Feb-03 00:00:00.0000, -2.972578969229360E+08, 8.139552951908119E+07, -1.008168132214582E+08,
2460350.500000000, A.D. 2024-Feb-10 00:00:00.0000, -3.009228892966723E+08, 7.068974573087868E+07, -1.023227719961726E+08,
2460357.500000000, A.D. 2024-Feb-17 00:00:00.0000, -3.041647581224174E+08, 5.988450636514650E+07, -1.036848481485894E+08,
2460364.500000000, A.D. 2024-Feb-24 00:00:00.0000, -3.069839269569710E+08, 4.899598826177101E+07, -1.049028236152777E+08,
2460371.500000000, A.D. 2024-Mar-02 00:00:00.0000, -3.093811752638894E+08, 3.804007522989795E+07, -1.059766097389065E+08,
2460378.500000000, A.D. 2024-Mar-09 00:00:00.0000, -3.113576177821128E+08, 2.703236865460442E+07, -1.069062400068949E+08,
2460385.500000000, A.D. 2024-Mar-16 00:00:00.0000, -3.129146853320516E+08, 1.598819855258043E+07, -1.076918635164535E+08,
2460392.500000000, A.D. 2024-Mar-23 00:00:00.0000, -3.140541070576873E+08, 4.922636071263321E+06, -1.083337390294041E+08,
2460399.500000000, A.D. 2024-Mar-30 00:00:00.0000, -3.147778962474158E+08, -6.149492698300324E+06, -1.088322293795236E+08,
2460406.500000000, A.D. 2024-Apr-06 00:00:00.0000, -3.150883393896205E+08, -1.721359505327208E+07, -1.091877965033265E+08,
2460413.500000000, A.D. 2024-Apr-13 00:00:00.0000, -3.149879848305761E+08, -2.825530139425602E+07, -1.094009973270591E+08,
2460420.500000000, A.D. 2024-Apr-20 00:00:00.0000, -3.144796319063680E+08, -3.926045371171740E+07, -1.094724801773311E+08,
2460427.500000000, A.D. 2024-Apr-27 00:00:00.0000, -3.135663219916573E+08, -5.021509346515403E+07, -1.094029815982255E+08,
2460434.500000000, A.D. 2024-May-04 00:00:00.0000, -3.122513313138428E+08, -6.110544961100970E+07, -1.091933236224390E+08,
2460441.500000000, A.D. 2024-May-11 00:00:00.0000, -3.105381652374678E+08, -7.191792692398715E+07, -1.088444115102753E+08,
2460448.500000000, A.D. 2024-May-18 00:00:00.0000, -3.084305538838010E+08, -8.263909462718189E+07, -1.083572319450358E+08,
2460455.500000000, A.D. 2024-May-25 00:00:00.0000, -3.059324490122429E+08, -9.325567537259308E+07, -1.077328516708389E+08,
2460462.500000000, A.D. 2024-Jun-01 00:00:00.0000, -3.030480220605738E+08, -1.037545346621141E+08, -1.069724165679079E+08,
2460469.500000000, A.D. 2024-Jun-08 00:00:00.0000, -2.997816630601652E+08, -1.141226707630512E+08, -1.060771511766371E+08,
2460476.500000000, A.D. 2024-Jun-15 00:00:00.0000, -2.961379799942787E+08, -1.243472046029251E+08, -1.050483586510835E+08,
2460483.500000000, A.D. 2024-Jun-22 00:00:00.0000, -2.921217995763944E+08, -1.344153684978401E+08, -1.038874209435396E+08,
2460490.500000000, A.D. 2024-Jun-29 00:00:00.0000, -2.877381715465718E+08, -1.443144955664523E+08, -1.025957991666924E+08,
2460497.500000000, A.D. 2024-Jul-06 00:00:00.0000, -2.829923738250979E+08, -1.540320123341389E+08, -1.011750345743678E+08,
2460504.500000000, A.D. 2024-Jul-13 00:00:00.0000, -2.778899165644387E+08, -1.635554317356443E+08, -9.962675010675970E+07,
2460511.500000000, A.D. 2024-Jul-20 00:00:00.0000, -2.724365470761041E+08, -1.728723453994485E+08, -9.795265222042400E+07,
2460518.500000000, A.D. 2024-Jul-27 00:00:00.0000, -2.666382562800751E+08, -1.819704162096591E+08, -9.615453301793078E+07,
2460525.500000000, A.D. 2024-Aug-03 00:00:00.0000, -2.605012863997099E+08, -1.908373715634537E+08, -9.423427273310992E+07,
2460532.500000000, A.D. 2024-Aug-10 00:00:00.0000, -2.540321397386419E+08, -1.994609973765965E+08, -9.219384259148489E+07,
2460539.500000000, A.D. 2024-Aug-17 00:00:00.0000, -2.472375884995891E+08, -2.078291328665894E+08, -9.003530805385877E+07,
2460546.500000000, A.D. 2024-Aug-24 00:00:00.0000, -2.401246856273202E+08, -2.159296661908664E+08, -8.776083245277673E+07,
2460553.500000000, A.D. 2024-Aug-31 00:00:00.0000, -2.327007765723071E+08, -2.237505310612436E+08, -8.537268104230925E+07,
2460560.500000000, A.D. 2024-Sep-07 00:00:00.0000, -2.249735116223882E+08, -2.312797042723441E+08, -8.287322548749538E+07,
2460567.500000000, A.D. 2024-Sep-14 00:00:00.0000, -2.169508587271197E+08, -2.385052032173602E+08, -8.026494872029160E+07,
2460574.500000000, A.D. 2024-Sep-21 00:00:00.0000, -2.086411188471182E+08, -2.454150830570474E+08, -7.755044994149275E+07,
2460581.500000000, A.D. 2024-Sep-28 00:00:00.0000, -2.000529443156111E+08, -2.519974368647800E+08, -7.473244999121056E+07,
2460588.500000000, A.D. 2024-Oct-05 00:00:00.0000, -1.911953565479560E+08, -2.582403988601946E+08, -7.181379743537794E+07,
2460595.500000000, A.D. 2024-Oct-12 00:00:00.0000, -1.820777634728565E+08, -2.641321478766233E+08, -6.879747510498933E+07,
2460602.500000000, A.D. 2024-Oct-19 00:00:00.0000, -1.727099784495126E+08, -2.696609114641514E+08, -6.568660695877764E+07,
2460609.500000000, A.D. 2024-Oct-26 00:00:00.0000, -1.631022407092001E+08, -2.748149715682570E+08, -6.248446533497733E+07,
2460616.500000000, A.D. 2024-Nov-02 00:00:00.0000, -1.532652370584378E+08, -2.795826720837191E+08, -5.919447862674497E+07,
2460623.500000000, A.D. 2024-Nov-09 00:00:00.0000, -1.432101247306027E+08, -2.839524284325971E+08, -5.582023938569702E+07,
2460630.500000000, A.D. 2024-Nov-16 00:00:00.0000, -1.329485553348937E+08, -2.879127393548729E+08, -5.236551285170920E+07,
2460637.500000000, A.D. 2024-Nov-23 00:00:00.0000, -1.224926998200857E+08, -2.914522011678567E+08, -4.883424590940002E+07,
2460644.500000000, A.D. 2024-Nov-30 00:00:00.0000, -1.118552741941639E+08, -2.945595247604328E+08, -4.523057648069286E+07,
2460651.500000000, A.D. 2024-Dec-07 00:00:00.0000, -1.010495655113581E+08, -2.972235551436114E+08, -4.155884333847335E+07,
2460658.500000000, A.D. 2024-Dec-14 00:00:00.0000, -9.008945872457862E+07, -2.994332925941377E+08, -3.782359615201056E+07,
2460665.500000000, A.D. 2024-Dec-21 00:00:00.0000, -7.898946660451630E+07, -3.011779169104165E+08, -3.402960561830005E+07,
2460672.500000000, A.D. 2024-Dec-28 00:00:00.0000, -6.776476060428822E+07, -3.024468180478283E+08, -3.018187405913748E+07,
2460679.500000000, A.D. 2025-Jan-04 00:00:00.0000, -5.643119989068276E+07, -3.032296310804771E+08, -2.628564647354166E+07,
2460686.500000000, A.D. 2025-Jan-11 00:00:00.0000, -4.500536014286777E+07, -3.035162741701747E+08, -2.234642167415588E+07,
2460693.500000000, A.D. 2025-Jan-18 00:00:00.0000, -3.350456276812885E+07, -3.032969908157628E+08, -1.836996341337693E+07,
2460700.500000000, A.D. 2025-Jan-25 00:00:00.0000, -2.194690397047235E+07, -3.025623972232498E+08, -1.436231145652683E+07,
2460707.500000000, A.D. 2025-Feb-01 00:00:00.0000, -1.035128310114833E+07, -3.013035351990841E+08, -1.032979249719091E+07,
2460714.500000000, A.D. 2025-Feb-08 00:00:00.0000, 1.262570219777676E+06, -2.995119309203689E+08, -6.279030770878151E+06,
$$EOE